$$SOE
2461302.500000000, A.D. 2026-Sep-19 00:00:00.0000, -4.233994595542489E+08, -1.179135013699021E+08, 5.919149486294657E+07,
2461309.500000000, A.D. 2026-Sep-26 00:00:00.0000, -4.200363592809290E+08, -1.268886877358750E+08, 5.925695586118718E+07,
2461316.500000000, A.D. 2026-Oct-03 00:00:00.0000, -4.164383395123943E+08, -1.357928764591922E+08, 5.928927175673892E+07,
2461323.500000000, A.D. 2026-Oct-10 00:00:00.0000, -4.126062204404323E+08, -1.446207019763477E+08, 5.928825476821973E+07,
2461330.500000000, A.D. 2026-Oct-17 00:00:00.0000, -4.085409020675425E+08, -1.533667654797573E+08, 5.925372529455350E+07,
2461337.500000000, A.D. 2026-Oct-24 00:00:00.0000, -4.042433668251352E+08, -1.620256336349286E+08, 5.918551216082976E+07,
2461344.500000000, A.D. 2026-Oct-31 00:00:00.0000, -3.997146822761536E+08, -1.705918375165333E+08, 5.908345286672369E+07,
2461351.500000000, A.D. 2026-Nov-07 00:00:00.0000, -3.949560035675384E+08, -1.790598716957828E+08, 5.894739381350459E+07,
2461358.500000000, A.D. 2026-Nov-14 00:00:00.0000, -3.899685754360421E+08, -1.874241925985805E+08, 5.877719056483746E+07,
2461365.500000000, A.D. 2026-Nov-21 00:00:00.0000, -3.847537355831388E+08, -1.956792154602352E+08, 5.857270836432713E+07,
2461372.500000000, A.D. 2026-Nov-28 00:00:00.0000, -3.793129204219019E+08, -2.038193128941735E+08, 5.833382275676808E+07,
2461379.500000000, A.D. 2026-Dec-05 00:00:00.0000, -3.736476695830441E+08, -2.118388157412458E+08, 5.806041992926805E+07,
2461386.500000000, A.D. 2026-Dec-12 00:00:00.0000, -3.677596290214273E+08, -2.197320130978315E+08, 5.775239701313624E+07,
2461393.500000000, A.D. 2026-Dec-19 00:00:00.0000, -3.616505546144005E+08, -2.274931515256891E+08, 5.740966252142474E+07,
2461400.500000000, A.D. 2026-Dec-26 00:00:00.0000, -3.553223163980483E+08, -2.351164343231973E+08, 5.703213686535424E+07,
2461407.500000000, A.D. 2027-Jan-02 00:00:00.0000, -3.487769031705465E+08, -2.425960210626829E+08, 5.661975291011765E+07,
2461414.500000000, A.D. 2027-Jan-09 00:00:00.0000, -3.420164273519759E+08, -2.499260273884454E+08, 5.617245656267115E+07,
2461421.500000000, A.D. 2027-Jan-16 00:00:00.0000, -3.350431300718969E+08, -2.571005250820365E+08, 5.569020739071566E+07,
2461428.500000000, A.D. 2027-Jan-23 00:00:00.0000, -3.278593864452113E+08, -2.641135424507842E+08, 5.517297926706123E+07,
2461435.500000000, A.D. 2027-Jan-30 00:00:00.0000, -3.204677108550370E+08, -2.709590651049445E+08, 5.462076101987728E+07,
2461442.500000000, A.D. 2027-Feb-06 00:00:00.0000, -3.128707618241987E+08, -2.776310368019700E+08, 5.403355707926738E+07,
2461449.500000000, A.D. 2027-Feb-13 00:00:00.0000, -3.050713469411293E+08, -2.841233591569821E+08, 5.341138826346272E+07,
2461456.500000000, A.D. 2027-Feb-20 00:00:00.0000, -2.970724302074226E+08, -2.904298910295612E+08, 5.275429285770748E+07,
2461463.500000000, A.D. 2027-Feb-27 00:00:00.0000, -2.888771404126117E+08, -2.965444508217942E+08, 5.206232759584547E+07,
2461470.500000000, A.D. 2027-Mar-06 00:00:00.0000, -2.804887775184500E+08, -3.024608197887430E+08, 5.133556842573927E+07,
2461477.500000000, A.D. 2027-Mar-13 00:00:00.0000, -2.719108186512549E+08, -3.081727443374952E+08, 5.057411137362829E+07,
2461484.500000000, A.D. 2027-Mar-20 00:00:00.0000, -2.631469248286663E+08, -3.136739381780319E+08, 4.977807354379888E+07,
2461491.500000000, A.D. 2027-Mar-27 00:00:00.0000, -2.542009482158285E+08, -3.189580849065854E+08, 4.894759419155182E+07,
2461498.500000000, A.D. 2027-Apr-03 00:00:00.0000, -2.450769397052659E+08, -3.240188411030688E+08, 4.808283584860316E+07,
2461505.500000000, A.D. 2027-Apr-10 00:00:00.0000, -2.357791567554946E+08, -3.288498399543301E+08, 4.718398549884547E+07,
2461512.500000000, A.D. 2027-Apr-17 00:00:00.0000, -2.263120714602042E+08, -3.334446954528835E+08, 4.625125580260719E+07,
2461519.500000000, A.D. 2027-Apr-24 00:00:00.0000, -2.166803787593655E+08, -3.377970072696846E+08, 4.528488635791108E+07,
2461526.500000000, A.D. 2027-May-01 00:00:00.0000, -2.068890044798401E+08, -3.419003663113182E+08, 4.428514497395296E+07,
2461533.500000000, A.D. 2027-May-08 00:00:00.0000, -1.969431128821453E+08, -3.457483602531148E+08, 4.325232898983017E+07,
2461540.500000000, A.D. 2027-May-15 00:00:00.0000, -1.868481151905917E+08, -3.493345781356240E+08, 4.218676685322632E+07,
2461547.500000000, A.D. 2027-May-22 00:00:00.0000, -1.766096806462162E+08, -3.526526166582429E+08, 4.108881988949345E+07,
2461554.500000000, A.D. 2027-May-29 00:00:00.0000, -1.662337466980595E+08, -3.556960896837463E+08, 3.995888383194298E+07,
2461561.500000000, A.D. 2027-Jun-05 00:00:00.0000, -1.557265274158032E+08, -3.584586378695748E+08, 3.879739028666186E+07,
2461568.500000000, A.D. 2027-Jun-12 00:00:00.0000, -1.450945220936897E+08, -3.609339380417945E+08, 3.760480834923436E+07,
2461575.500000000, A.D. 2027-Jun-19 00:00:00.0000, -1.343445243328784E+08, -3.631157132952095E+08, 3.638164632468364E+07,
2461582.500000000, A.D. 2027-Jun-26 00:00:00.0000, -1.234836312727454E+08, -3.649977441306477E+08, 3.512845350043170E+07,
2461589.500000000, A.D. 2027-Jul-03 00:00:00.0000, -1.125192527825697E+08, -3.665738806721137E+08, 3.384582195700327E+07,
2461596.500000000, A.D. 2027-Jul-10 00:00:00.0000, -1.014591205141584E+08, -3.678380560070447E+08, 3.253438840937939E+07,
2461603.500000000, A.D. 2027-Jul-17 00:00:00.0000, -9.031129671026918E+07, -3.687843007399654E+08, 3.119483606730630E+07,
2461610.500000000, A.D. 2027-Jul-24 00:00:00.0000, -7.908418253633256E+07, -3.694067588713251E+08, 2.982789648868483E+07,
2461617.500000000, A.D. 2027-Jul-31 00:00:00.0000, -6.778652543929452E+07, -3.696997048115596E+08, 2.843435139965899E+07,
2461624.500000000, A.D. 2027-Aug-07 00:00:00.0000, -5.642742564015163E+07, -3.696575604200392E+08, 2.701503458444273E+07,
2461631.500000000, A.D. 2027-Aug-14 00:00:00.0000, -4.501634395698858E+07, -3.692749123578511E+08, 2.557083402395171E+07,
2461638.500000000, A.D. 2027-Aug-21 00:00:00.0000, -3.356311022475241E+07, -3.685465331486043E+08, 2.410269393854801E+07,
2461645.500000000, A.D. 2027-Aug-28 00:00:00.0000, -2.207792875494551E+07, -3.674674047701201E+08, 2.261161650426537E+07,
2461652.500000000, A.D. 2027-Sep-04 00:00:00.0000, -1.057138188180511E+07, -3.660327422937253E+08, 2.109866353964522E+07,
2461659.500000000, A.D. 2027-Sep-11 00:00:00.0000, 9.455671540512196E+05, -3.642380182405069E+08, 1.956495821944565E+07,
2461666.500000000, A.D. 2027-Sep-18 00:00:00.0000, 1.246157227210903E+07, -3.620789883005375E+08, 1.801168673018132E+07,
2461673.500000000, A.D. 2027-Sep-25 00:00:00.0000, 2.396490396137253E+07, -3.595517184746239E+08, 1.644009981842260E+07,
2461680.500000000, A.D. 2027-Oct-02 00:00:00.0000, 3.544345028116040E+07, -3.566526135768647E+08, 1.485151420333792E+07,
2461687.500000000, A.D. 2027-Oct-09 00:00:00.0000, 4.688471965860341E+07, -3.533784470513338E+08, 1.324731382519639E+07,
2461694.500000000, A.D. 2027-Oct-16 00:00:00.0000, 5.827584573662602E+07, -3.497263920893919E+08, 1.162895089218609E+07,
2461701.500000000, A.D. 2027-Oct-23 00:00:00.0000, 6.960359472730832E+07, -3.456940539657634E+08, 9.997946672505006E+06,
2461708.500000000, A.D. 2027-Oct-30 00:00:00.0000, 8.085437584170504E+07, -3.412795028724349E+08, 8.355892016844079E+06,
2461715.500000000, A.D. 2027-Nov-06 00:00:00.0000, 9.201425382749763E+07, -3.364813059840219E+08, 6.704447777917460E+06,
2461722.500000000, A.D. 2027-Nov-13 00:00:00.0000, 1.030689618199510E+08, -3.312985606594342E+08, 5.045345105284944E+06,
2461729.500000000, A.D. 2027-Nov-20 00:00:00.0000, 1.140039175952799E+08, -3.257309307594494E+08, 3.380385135092944E+06,
2461736.500000000, A.D. 2027-Nov-27 00:00:00.0000, 1.248042450269262E+08, -3.197786828783861E+08, 1.711438132758304E+06,
2461743.500000000, A.D. 2027-Dec-04 00:00:00.0000, 1.354547988957626E+08, -3.134427213098380E+08, 4.044231343199313E+04,
2461750.500000000, A.D. 2027-Dec-11 00:00:00.0000, 1.459401926631740E+08, -3.067246224175757E+08, -1.630597722486615E+06,
2461757.500000000, A.D. 2027-Dec-18 00:00:00.0000, 1.562448296170007E+08, -2.996266684310861E+08, -3.299613024722129E+06,
2461764.500000000, A.D. 2027-Dec-25 00:00:00.0000, 1.663529376446238E+08, -2.921518803175173E+08, -4.964472844832003E+06,
2461771.500000000, A.D. 2028-Jan-01 00:00:00.0000, 1.762486077393598E+08, -2.843040493310452E+08, -6.622987736065373E+06,
$$EOE